ONEWEB-0578             
1 56067U 23043X   24152.20710056  .00000064  00000+0  12406-3 0  9996
2 56067  87.9306  32.6677 0001776  78.1359 281.9974 13.21824844 59555
ONEWEB-0579             
1 56068U 23043Y   24152.19764158  .00000020  00000+0  15999-4 0  9990
2 56068  87.9303  32.6677 0002077  91.6578 268.4794 13.21824857 60478
ONEWEB-0581             
1 56069U 23043Z   24152.55613483  .00000020  00000+0  17634-4 0  9993
2 56069  87.9120  17.4315 0001567 101.9040 258.2267 13.16593437 60718
ONEWEB-0609             
1 56070U 23043AA  24152.60501118  .00000032  00000+0  49974-4 0  9997
2 56070  87.9053  47.7893 0001991  79.3427 280.7928 13.15546174 58277
ONEWEB-0613             
1 56071U 23043AB  24152.21998634  .00000022  00000+0  25547-4 0  9997
2 56071  87.9057  47.8612 0002179  86.8208 273.3172 13.15548453 58227
ONEWEB-0630             
1 56072U 23043AC  24152.21523476 -.00000100  00000+0 -29982-3 0  9991
2 56072  87.9054  47.8539 0002266  83.5888 276.5501 13.15548172 58216
ONEWEB-0632             
1 56073U 23043AD  24152.21047887 -.00000033  00000+0 -12212-3 0  9992
2 56073  87.9053  47.8732 0001770  91.8718 268.2615 13.15548810 58217
ONEWEB-0633             
1 56074U 23043AE  24152.20412500 -.00000037  00000+0 -13299-3 0  9990
2 56074  87.9052  47.8571 0002460  82.6903 277.4506 13.15546829 58195
